{
  "type": "FeatureCollection",
  "features": [
    {
      "type": "Feature",
      "properties": {
        "id": "bridge-rasuwagadhi-01",
        "name": "Demo bridge ID near Rasuwagadhi",
        "kind": "bridge",
        "coordinates": [
          85.3261,
          28.2357
        ],
        "corridorKm": 4.4,
        "officialNameVerified": false,
        "classification": "representative"
      },
      "geometry": {
        "type": "Point",
        "coordinates": [
          85.3261,
          28.2357
        ]
      }
    },
    {
      "type": "Feature",
      "properties": {
        "id": "settlement-rasuwagadhi",
        "name": "Rasuwagadhi",
        "kind": "settlement",
        "coordinates": [
          85.3266,
          28.2381
        ],
        "corridorKm": 4.4,
        "officialNameVerified": true,
        "classification": "observed"
      },
      "geometry": {
        "type": "Point",
        "coordinates": [
          85.3266,
          28.2381
        ]
      }
    },
    {
      "type": "Feature",
      "properties": {
        "id": "settlement-timure",
        "name": "Timure",
        "kind": "settlement",
        "coordinates": [
          85.3075,
          28.2006
        ],
        "corridorKm": 11.3,
        "officialNameVerified": true,
        "classification": "observed"
      },
      "geometry": {
        "type": "Point",
        "coordinates": [
          85.3075,
          28.2006
        ]
      }
    },
    {
      "type": "Feature",
      "properties": {
        "id": "bridge-timure-01",
        "name": "Demo bridge ID near Timure",
        "kind": "bridge",
        "coordinates": [
          85.3069,
          28.1998
        ],
        "corridorKm": 11.3,
        "officialNameVerified": false,
        "classification": "representative"
      },
      "geometry": {
        "type": "Point",
        "coordinates": [
          85.3069,
          28.1998
        ]
      }
    },
    {
      "type": "Feature",
      "properties": {
        "id": "settlement-syabrubesi",
        "name": "Syabrubesi",
        "kind": "settlement",
        "coordinates": [
          85.296,
          28.1046
        ],
        "corridorKm": 21.2,
        "officialNameVerified": true,
        "classification": "observed"
      },
      "geometry": {
        "type": "Point",
        "coordinates": [
          85.296,
          28.1046
        ]
      }
    },
    {
      "type": "Feature",
      "properties": {
        "id": "bridge-syabrubesi-01",
        "name": "Demo bridge ID near Syabrubesi",
        "kind": "bridge",
        "coordinates": [
          85.2967,
          28.104
        ],
        "corridorKm": 21.2,
        "officialNameVerified": false,
        "classification": "representative"
      },
      "geometry": {
        "type": "Point",
        "coordinates": [
          85.2967,
          28.104
        ]
      }
    },
    {
      "type": "Feature",
      "properties": {
        "id": "road-corridor-01",
        "name": "Rasuwagadhi-Syabrubesi road corridor segment",
        "kind": "road",
        "coordinates": [
          85.302,
          28.151
        ],
        "corridorKm": 17.8,
        "officialNameVerified": false,
        "classification": "representative"
      },
      "geometry": {
        "type": "Point",
        "coordinates": [
          85.302,
          28.151
        ]
      }
    },
    {
      "type": "Feature",
      "properties": {
        "id": "settlement-betrawati",
        "name": "Betrawati",
        "kind": "settlement",
        "coordinates": [
          85.1765,
          27.9524
        ],
        "corridorKm": 44.6,
        "officialNameVerified": true,
        "classification": "observed"
      },
      "geometry": {
        "type": "Point",
        "coordinates": [
          85.1765,
          27.9524
        ]
      }
    },
    {
      "type": "Feature",
      "properties": {
        "id": "bridge-betrawati-01",
        "name": "Demo bridge ID near Betrawati",
        "kind": "bridge",
        "coordinates": [
          85.176,
          27.9518
        ],
        "corridorKm": 44.6,
        "officialNameVerified": false,
        "classification": "representative"
      },
      "geometry": {
        "type": "Point",
        "coordinates": [
          85.176,
          27.9518
        ]
      }
    },
    {
      "type": "Feature",
      "properties": {
        "id": "critical-devighat-hydro",
        "name": "Representative hydropower / utility asset near Devighat",
        "kind": "critical_facility",
        "coordinates": [
          85.1614,
          27.9073
        ],
        "corridorKm": 49.4,
        "officialNameVerified": false,
        "classification": "representative"
      },
      "geometry": {
        "type": "Point",
        "coordinates": [
          85.1614,
          27.9073
        ]
      }
    },
    {
      "type": "Feature",
      "properties": {
        "id": "settlement-galchhi",
        "name": "Galchhi",
        "kind": "settlement",
        "coordinates": [
          85.033,
          27.8228
        ],
        "corridorKm": 68.7,
        "officialNameVerified": true,
        "classification": "observed"
      },
      "geometry": {
        "type": "Point",
        "coordinates": [
          85.033,
          27.8228
        ]
      }
    },
    {
      "type": "Feature",
      "properties": {
        "id": "settlement-malekhu",
        "name": "Malekhu",
        "kind": "settlement",
        "coordinates": [
          84.8684,
          27.8105
        ],
        "corridorKm": 87.3,
        "officialNameVerified": true,
        "classification": "observed"
      },
      "geometry": {
        "type": "Point",
        "coordinates": [
          84.8684,
          27.8105
        ]
      }
    },
    {
      "type": "Feature",
      "properties": {
        "id": "settlement-lower-trishuli-bend",
        "name": "Lower Trishuli bend community cluster",
        "kind": "settlement",
        "coordinates": [
          84.6423,
          27.8601
        ],
        "corridorKm": 117.7,
        "officialNameVerified": false,
        "classification": "representative"
      },
      "geometry": {
        "type": "Point",
        "coordinates": [
          84.6423,
          27.8601
        ]
      }
    },
    {
      "type": "Feature",
      "properties": {
        "id": "road-lower-trishuli-transport",
        "name": "Lower Trishuli transport corridor segment",
        "kind": "road",
        "coordinates": [
          84.5592,
          27.8578
        ],
        "corridorKm": 129.5,
        "officialNameVerified": false,
        "classification": "representative"
      },
      "geometry": {
        "type": "Point",
        "coordinates": [
          84.5592,
          27.8578
        ]
      }
    },
    {
      "type": "Feature",
      "properties": {
        "id": "critical-lower-trishuli-monitoring",
        "name": "Representative downstream monitoring point",
        "kind": "critical_facility",
        "coordinates": [
          84.422,
          27.7413
        ],
        "corridorKm": 160.2,
        "officialNameVerified": false,
        "classification": "representative"
      },
      "geometry": {
        "type": "Point",
        "coordinates": [
          84.422,
          27.7413
        ]
      }
    },
    {
      "type": "Feature",
      "properties": {
        "id": "river-bhote-koshi-trishuli",
        "name": "Bhote Koshi / Trishuli corridor",
        "kind": "river",
        "classification": "derived"
      },
      "geometry": {
        "type": "LineString",
        "coordinates": [
          [
            85.3769971,
            28.2780537
          ],
          [
            85.376088,
            28.267891
          ],
          [
            85.369677,
            28.259867
          ],
          [
            85.364696,
            28.251531
          ],
          [
            85.358612,
            28.243171
          ],
          [
            85.360214,
            28.23314
          ],
          [
            85.360604,
            28.222534
          ],
          [
            85.354851,
            28.213783
          ],
          [
            85.353261,
            28.203573
          ],
          [
            85.349282,
            28.193611
          ],
          [
            85.344153,
            28.184142
          ],
          [
            85.34298,
            28.173921
          ],
          [
            85.340677,
            28.164338
          ],
          [
            85.332996,
            28.157616
          ],
          [
            85.323908,
            28.150734
          ],
          [
            85.313985,
            28.145473
          ],
          [
            85.306972,
            28.140163
          ],
          [
            85.300479,
            28.131378
          ],
          [
            85.293466,
            28.12355
          ],
          [
            85.284359,
            28.116997
          ],
          [
            85.276476,
            28.109496
          ],
          [
            85.268537,
            28.102401
          ],
          [
            85.260014,
            28.095806
          ],
          [
            85.248559,
            28.092666
          ],
          [
            85.236669,
            28.091098
          ],
          [
            85.227508,
            28.085003
          ],
          [
            85.217543,
            28.079168
          ],
          [
            85.208408,
            28.072744
          ],
          [
            85.20699,
            28.063841
          ],
          [
            85.207367,
            28.053567
          ],
          [
            85.200626,
            28.04514
          ],
          [
            85.193674,
            28.037123
          ],
          [
            85.191118,
            28.027551
          ],
          [
            85.187429,
            28.019452
          ],
          [
            85.183736,
            28.010154
          ],
          [
            85.184784,
            27.999758
          ],
          [
            85.182836,
            27.990818
          ],
          [
            85.180339,
            27.981358
          ],
          [
            85.184333,
            27.971371
          ],
          [
            85.175838,
            27.964702
          ],
          [
            85.167625,
            27.958024
          ],
          [
            85.162451,
            27.950414
          ],
          [
            85.159219,
            27.940565
          ],
          [
            85.153645,
            27.931825
          ],
          [
            85.150189,
            27.927403
          ],
          [
            85.14526,
            27.920525
          ],
          [
            85.135086,
            27.915837
          ],
          [
            85.139139,
            27.907013
          ],
          [
            85.136791,
            27.898573
          ],
          [
            85.136389,
            27.888437
          ],
          [
            85.126954,
            27.881667
          ],
          [
            85.121873,
            27.873421
          ],
          [
            85.112942,
            27.867013
          ],
          [
            85.106224,
            27.858491
          ],
          [
            85.094514,
            27.860172
          ],
          [
            85.085268,
            27.856301
          ],
          [
            85.074008,
            27.853334
          ],
          [
            85.063255,
            27.857689
          ],
          [
            85.055759,
            27.854851
          ],
          [
            85.044975,
            27.855233
          ],
          [
            85.034265,
            27.853727
          ],
          [
            85.027257,
            27.847391
          ],
          [
            85.019638,
            27.840825
          ],
          [
            85.021718,
            27.831585
          ],
          [
            85.017348,
            27.822158
          ],
          [
            85.012233,
            27.812623
          ],
          [
            85.009477,
            27.805597
          ],
          [
            84.998741,
            27.802817
          ],
          [
            84.987987,
            27.805528
          ],
          [
            84.97706,
            27.801507
          ],
          [
            84.969275,
            27.807182
          ],
          [
            84.964641,
            27.812833
          ],
          [
            84.955491,
            27.817252
          ],
          [
            84.945806,
            27.814031
          ],
          [
            84.939856,
            27.805004
          ],
          [
            84.929753,
            27.800625
          ],
          [
            84.919312,
            27.799481
          ],
          [
            84.910802,
            27.804756
          ],
          [
            84.90285,
            27.806966
          ],
          [
            84.891484,
            27.808522
          ],
          [
            84.880651,
            27.80963
          ],
          [
            84.872279,
            27.805003
          ],
          [
            84.863464,
            27.802933
          ],
          [
            84.853886,
            27.807849
          ],
          [
            84.846022,
            27.803244
          ],
          [
            84.838341,
            27.806456
          ],
          [
            84.833727,
            27.815765
          ],
          [
            84.823411,
            27.817603
          ],
          [
            84.821315,
            27.807888
          ],
          [
            84.81403,
            27.814063
          ],
          [
            84.803859,
            27.816656
          ],
          [
            84.792889,
            27.812782
          ],
          [
            84.781847,
            27.813591
          ],
          [
            84.771977,
            27.80935
          ],
          [
            84.766767,
            27.81734
          ],
          [
            84.757012,
            27.814072
          ],
          [
            84.751628,
            27.805338
          ],
          [
            84.740238,
            27.804511
          ],
          [
            84.733588,
            27.797253
          ],
          [
            84.725435,
            27.800765
          ],
          [
            84.715675,
            27.801659
          ],
          [
            84.708263,
            27.805547
          ],
          [
            84.697525,
            27.808473
          ],
          [
            84.685601,
            27.810437
          ],
          [
            84.675482,
            27.816118
          ],
          [
            84.667748,
            27.821803
          ],
          [
            84.661144,
            27.830246
          ],
          [
            84.664101,
            27.840585
          ],
          [
            84.659486,
            27.850455
          ],
          [
            84.647987,
            27.853155
          ],
          [
            84.646311,
            27.860575
          ],
          [
            84.634539,
            27.861072
          ],
          [
            84.630529,
            27.870052
          ],
          [
            84.626268,
            27.878723
          ],
          [
            84.616264,
            27.877904
          ],
          [
            84.608314,
            27.871683
          ],
          [
            84.598963,
            27.876324
          ],
          [
            84.588772,
            27.879094
          ],
          [
            84.579005,
            27.872862
          ],
          [
            84.575979,
            27.863528
          ],
          [
            84.565469,
            27.858425
          ],
          [
            84.557066,
            27.853555
          ],
          [
            84.557611,
            27.843044
          ],
          [
            84.552039,
            27.834219
          ],
          [
            84.54094,
            27.833404
          ],
          [
            84.528981,
            27.833753
          ],
          [
            84.520227,
            27.828667
          ],
          [
            84.518949,
            27.818133
          ],
          [
            84.508137,
            27.816852
          ],
          [
            84.497048,
            27.820762
          ],
          [
            84.486182,
            27.82119
          ],
          [
            84.474448,
            27.82349
          ],
          [
            84.466385,
            27.821609
          ],
          [
            84.456725,
            27.819832
          ],
          [
            84.445382,
            27.823193
          ],
          [
            84.437755,
            27.815611
          ],
          [
            84.431598,
            27.807988
          ],
          [
            84.430782,
            27.797294
          ],
          [
            84.431639,
            27.786928
          ],
          [
            84.438983,
            27.778383
          ],
          [
            84.45107,
            27.778016
          ],
          [
            84.461723,
            27.772997
          ],
          [
            84.468629,
            27.764376
          ],
          [
            84.472248,
            27.754215
          ],
          [
            84.46305,
            27.753944
          ],
          [
            84.453845,
            27.759725
          ],
          [
            84.445315,
            27.753256
          ],
          [
            84.438952,
            27.744126
          ],
          [
            84.427989,
            27.742629
          ],
          [
            84.4219815,
            27.7412651
          ]
        ]
      }
    },
    {
      "type": "Feature",
      "properties": {
        "id": "road-corridor-line",
        "name": "Rasuwagadhi-Galchhi road corridor, representative alignment",
        "kind": "road",
        "classification": "representative"
      },
      "geometry": {
        "type": "LineString",
        "coordinates": [
          [
            85.382997,
            28.274054
          ],
          [
            85.382088,
            28.263891
          ],
          [
            85.375677,
            28.255867
          ],
          [
            85.370696,
            28.247531
          ],
          [
            85.364612,
            28.239171
          ],
          [
            85.366214,
            28.22914
          ],
          [
            85.366604,
            28.218534
          ],
          [
            85.360851,
            28.209783
          ],
          [
            85.359261,
            28.199573
          ],
          [
            85.355282,
            28.189611
          ],
          [
            85.350153,
            28.180142
          ],
          [
            85.34898,
            28.169921
          ],
          [
            85.346677,
            28.160338
          ],
          [
            85.338996,
            28.153616
          ],
          [
            85.329908,
            28.146734
          ],
          [
            85.319985,
            28.141473
          ],
          [
            85.312972,
            28.136163
          ],
          [
            85.306479,
            28.127378
          ],
          [
            85.299466,
            28.11955
          ],
          [
            85.290359,
            28.112997
          ],
          [
            85.282476,
            28.105496
          ],
          [
            85.274537,
            28.098401
          ],
          [
            85.266014,
            28.091806
          ],
          [
            85.254559,
            28.088666
          ],
          [
            85.242669,
            28.087098
          ],
          [
            85.233508,
            28.081003
          ],
          [
            85.223543,
            28.075168
          ],
          [
            85.214408,
            28.068744
          ],
          [
            85.21299,
            28.059841
          ],
          [
            85.213367,
            28.049567
          ],
          [
            85.206626,
            28.04114
          ],
          [
            85.199674,
            28.033123
          ],
          [
            85.197118,
            28.023551
          ],
          [
            85.193429,
            28.015452
          ],
          [
            85.189736,
            28.006154
          ],
          [
            85.190784,
            27.995758
          ],
          [
            85.188836,
            27.986818
          ],
          [
            85.186339,
            27.977358
          ],
          [
            85.190333,
            27.967371
          ],
          [
            85.181838,
            27.960702
          ],
          [
            85.173625,
            27.954024
          ],
          [
            85.168451,
            27.946414
          ],
          [
            85.165219,
            27.936565
          ],
          [
            85.159645,
            27.927825
          ],
          [
            85.156189,
            27.923403
          ],
          [
            85.15126,
            27.916525
          ],
          [
            85.141086,
            27.911837
          ],
          [
            85.145139,
            27.903013
          ],
          [
            85.142791,
            27.894573
          ],
          [
            85.142389,
            27.884437
          ],
          [
            85.132954,
            27.877667
          ],
          [
            85.127873,
            27.869421
          ],
          [
            85.118942,
            27.863013
          ],
          [
            85.112224,
            27.854491
          ],
          [
            85.100514,
            27.856172
          ],
          [
            85.091268,
            27.852301
          ],
          [
            85.080008,
            27.849334
          ],
          [
            85.069255,
            27.853689
          ],
          [
            85.061759,
            27.850851
          ],
          [
            85.050975,
            27.851233
          ],
          [
            85.040265,
            27.849727
          ],
          [
            85.033257,
            27.843391
          ],
          [
            85.025638,
            27.836825
          ],
          [
            85.027718,
            27.827585
          ],
          [
            85.023348,
            27.818158
          ],
          [
            85.018233,
            27.808623
          ],
          [
            85.015477,
            27.801597
          ],
          [
            85.004741,
            27.798817
          ],
          [
            84.993987,
            27.801528
          ],
          [
            84.98306,
            27.797507
          ],
          [
            84.975275,
            27.803182
          ],
          [
            84.970641,
            27.808833
          ],
          [
            84.961491,
            27.813252
          ],
          [
            84.951806,
            27.810031
          ],
          [
            84.945856,
            27.801004
          ],
          [
            84.935753,
            27.796625
          ],
          [
            84.925312,
            27.795481
          ],
          [
            84.916802,
            27.800756
          ],
          [
            84.90885,
            27.802966
          ],
          [
            84.897484,
            27.804522
          ],
          [
            84.886651,
            27.80563
          ],
          [
            84.878279,
            27.801003
          ],
          [
            84.869464,
            27.798933
          ],
          [
            84.859886,
            27.803849
          ],
          [
            84.852022,
            27.799244
          ],
          [
            84.844341,
            27.802456
          ],
          [
            84.839727,
            27.811765
          ],
          [
            84.829411,
            27.813603
          ],
          [
            84.827315,
            27.803888
          ],
          [
            84.82003,
            27.810063
          ],
          [
            84.809859,
            27.812656
          ],
          [
            84.798889,
            27.808782
          ],
          [
            84.787847,
            27.809591
          ],
          [
            84.777977,
            27.80535
          ],
          [
            84.772767,
            27.81334
          ],
          [
            84.763012,
            27.810072
          ],
          [
            84.757628,
            27.801338
          ],
          [
            84.746238,
            27.800511
          ],
          [
            84.739588,
            27.793253
          ],
          [
            84.731435,
            27.796765
          ],
          [
            84.721675,
            27.797659
          ],
          [
            84.714263,
            27.801547
          ],
          [
            84.703525,
            27.804473
          ],
          [
            84.691601,
            27.806437
          ],
          [
            84.681482,
            27.812118
          ],
          [
            84.673748,
            27.817803
          ],
          [
            84.667144,
            27.826246
          ],
          [
            84.670101,
            27.836585
          ],
          [
            84.665486,
            27.846455
          ],
          [
            84.653987,
            27.849155
          ],
          [
            84.652311,
            27.856575
          ],
          [
            84.640539,
            27.857072
          ],
          [
            84.636529,
            27.866052
          ],
          [
            84.632268,
            27.874723
          ],
          [
            84.622264,
            27.873904
          ],
          [
            84.614314,
            27.867683
          ],
          [
            84.604963,
            27.872324
          ],
          [
            84.594772,
            27.875094
          ],
          [
            84.585005,
            27.868862
          ],
          [
            84.581979,
            27.859528
          ],
          [
            84.571469,
            27.854425
          ],
          [
            84.563066,
            27.849555
          ],
          [
            84.563611,
            27.839044
          ],
          [
            84.558039,
            27.830219
          ],
          [
            84.54694,
            27.829404
          ],
          [
            84.534981,
            27.829753
          ],
          [
            84.526227,
            27.824667
          ],
          [
            84.524949,
            27.814133
          ],
          [
            84.514137,
            27.812852
          ],
          [
            84.503048,
            27.816762
          ],
          [
            84.492182,
            27.81719
          ],
          [
            84.480448,
            27.81949
          ],
          [
            84.472385,
            27.817609
          ],
          [
            84.462725,
            27.815832
          ],
          [
            84.451382,
            27.819193
          ],
          [
            84.443755,
            27.811611
          ],
          [
            84.437598,
            27.803988
          ],
          [
            84.436782,
            27.793294
          ],
          [
            84.437639,
            27.782928
          ],
          [
            84.444983,
            27.774383
          ],
          [
            84.45707,
            27.774016
          ],
          [
            84.467723,
            27.768997
          ],
          [
            84.474629,
            27.760376
          ],
          [
            84.478248,
            27.750215
          ],
          [
            84.46905,
            27.749944
          ],
          [
            84.459845,
            27.755725
          ],
          [
            84.451315,
            27.749256
          ],
          [
            84.444952,
            27.740126
          ],
          [
            84.433989,
            27.738629
          ],
          [
            84.427982,
            27.737265
          ]
        ]
      }
    }
  ]
}